STARLINK-2475           
1 48133U 21027AT  26068.54712537  .00014323  00000+0  49460-3 0  9995
2 48133  53.1606 165.9904 0001148 102.8051 257.3078 15.30212263272498
TEVEL2-6                
1 63215U 25052F   26068.64958975  .00021046  00000+0  70909-3 0  9996
2 63215  97.4016 325.0381 0004769  95.6604 264.5181 15.30760889 54861
